[{"OBJECT_NAME":"STARLINK-5789","OBJECT_ID":"2023-042T","EPOCH":"2026-03-09T08:55:55.186464","MEAN_MOTION":15.02533544,"ECCENTRICITY":0.00011101,"INCLINATION":43.0042,"RA_OF_ASC_NODE":57.7451,"ARG_OF_PERICENTER":261.1689,"MEAN_ANOMALY":98.9027,"EPHEMERIS_TYPE":0,"CLASSIFICATION_TYPE":"U","NORAD_CAT_ID":56003,"ELEMENT_SET_NO":999,"REV_AT_EPOCH":16286,"BSTAR":-1.1024166e-5,"MEAN_MOTION_DOT":-3.52e-6,"MEAN_MOTION_DDOT":0},{"OBJECT_NAME":"CZ-6A DEB","OBJECT_ID":"2022-151CR","EPOCH":"2026-03-09T17:17:08.438784","MEAN_MOTION":15.11778726,"ECCENTRICITY":0.00454354,"INCLINATION":98.5417,"RA_OF_ASC_NODE":160.2576,"ARG_OF_PERICENTER":86.1357,"MEAN_ANOMALY":274.5063,"EPHEMERIS_TYPE":0,"CLASSIFICATION_TYPE":"U","NORAD_CAT_ID":54346,"ELEMENT_SET_NO":999,"REV_AT_EPOCH":17769,"BSTAR":0.0041471579,"MEAN_MOTION_DOT":0.00073134,"MEAN_MOTION_DDOT":0}]
